NORAD_CAT_ID,OBJECT_NAME,OBJECT_TYPE,EPOCH,MEAN_MOTION,ECCENTRICITY,INCLINATION,RA_OF_ASC_NODE,ARG_OF_PERICENTER,MEAN_ANOMALY,BSTAR,MEAN_MOTION_DOT,MEAN_MOTION_DDOT,TLE_LINE0,TLE_LINE1,TLE_LINE2,SEMIMAJOR_AXIS,PERIOD,APOGEE,PERIGEE,DECAYED
53291.0,STARLINK-4166,PAYLOAD,2024-04-10 05:25:26,15.08835413,0.000124,53.217,74.4334,87.5388,272.5746,6.8422e-05,8.01e-06,0.0,0 STARLINK-4166,1 53291U 22086BB  24101.22600060  .00000801  00000-0  68422-4 0  9997,2 53291  53.2170  74.4334 0001240  87.5388 272.5746 15.08835413 95657,6917.894,95.438,540.617,538.902,0.0
53291.0,STARLINK-4166,PAYLOAD,2024-04-10 07:00:49,15.08836276,0.0001279,53.2172,74.1365,89.6098,270.5041,8.4821e-05,1.062e-05,0.0,0 STARLINK-4166,1 53291U 22086BB  24101.29224057  .00001062  00000-0  84821-4 0  9993,2 53291  53.2172  74.1365 0001279  89.6098 270.5041 15.08836276 95826,6917.892,95.438,540.642,538.872,0.0
53291.0,STARLINK-4166,PAYLOAD,2024-04-10 14:57:45,15.0884124,0.0001341,53.2169,72.6494,88.5052,271.6094,0.00020044,2.904e-05,0.0,0 STARLINK-4166,1 53291U 22086BB  24101.62343964  .00002904  00000-0  20044-3 0  9991,2 53291  53.2169  72.6494 0001341  88.5052 271.6094 15.08841240 95878,6917.877,95.437,540.669,538.814,0.0
53291.0,STARLINK-4166,PAYLOAD,2024-04-11 05:16:13,15.08857766,0.000134,53.2166,69.9731,87.0638,273.0508,0.0006487,0.00010056,0.0,0 STARLINK-4166,1 53291U 22086BB  24102.21959630  .00010056  00000-0  64870-3 0  9992,2 53291  53.2166  69.9731 0001340  87.0638 273.0508 15.08857766 95800,6917.826,95.436,540.618,538.764,0.0
53291.0,STARLINK-4166,PAYLOAD,2024-04-11 06:51:36,15.08866928,0.0001369,53.2167,69.6763,91.263,268.8519,0.00079319,0.00012367,0.0,0 STARLINK-4166,1 53291U 22086BB  24102.28583409  .00012367  00000-0  79319-3 0  9997,2 53291  53.2167  69.6763 0001369  91.2630 268.8519 15.08866928 95975,6917.798,95.436,540.61,538.716,0.0
53291.0,STARLINK-4166,PAYLOAD,2024-04-12 05:06:59,15.08855827,0.0001334,53.2168,65.5132,96.4682,263.6462,0.00015455,2.174e-05,0.0,0 STARLINK-4166,1 53291U 22086BB  24103.21318903  .00002174  00000-0  15455-3 0  9992,2 53291  53.2168  65.5132 0001334  96.4682 263.6462 15.08855827 95951,6917.832,95.437,540.62,538.774,0.0
53291.0,STARLINK-4166,PAYLOAD,2024-04-12 06:42:22,15.08854585,0.0001395,53.2167,65.2157,93.5285,266.5867,0.00011926,1.611e-05,0.0,0 STARLINK-4166,1 53291U 22086BB  24103.27942847  .00001611  00000-0  11926-3 0  9992,2 53291  53.2167  65.2157 0001395  93.5285 266.5867 15.08854585 96129,6917.836,95.437,540.666,538.736,0.0
53291.0,STARLINK-4166,PAYLOAD,2024-04-13 03:22:23,15.08849642,0.000169,53.2185,61.3464,68.1351,291.9821,0.00011301,1.511e-05,0.0,0 STARLINK-4166,1 53291U 22086BB  24104.14054810  .00001511  00000-0  11301-3 0  9999,2 53291  53.2185  61.3464 0001690  68.1351 291.9821 15.08849642 96093,6917.851,95.437,540.885,538.547,0.0
53291.0,STARLINK-4166,PAYLOAD,2024-04-14 03:13:10,15.08843149,0.0001902,53.2196,56.8865,62.5124,297.6061,8.1538e-05,1.01e-05,0.0,0 STARLINK-4166,1 53291U 22086BB  24105.13415225  .00001010  00000-0  81538-4 0  9994,2 53291  53.2196  56.8865 0001902  62.5124 297.6061 15.08843149 96243,6917.871,95.437,541.052,538.42,0.0
53291.0,STARLINK-4166,PAYLOAD,2024-04-15 03:03:57,15.08847969,0.0001559,53.2189,52.4259,96.4652,263.6518,0.0001282,1.753e-05,0.0,0 STARLINK-4166,1 53291U 22086BB  24106.12774766  .00001753  00000-0  12820-3 0  9993,2 53291  53.2189  52.4259 0001559  96.4652 263.6518 15.08847969 96552,6917.856,95.437,540.8,538.643,0.0
53291.0,STARLINK-4166,PAYLOAD,2024-04-15 20:33:11,15.08844123,0.0001667,53.22,49.1573,111.0518,249.0653,2.8445e-05,1.65e-06,0.0,0 STARLINK-4166,1 53291U 22086BB  24106.85638869  .00000165  00000-0  28445-4 0  9993,2 53291  53.2200  49.1573 0001667 111.0518 249.0653 15.08844123 96505,6917.868,95.437,540.886,538.58,0.0
53291.0,STARLINK-4166,PAYLOAD,2024-04-16 06:05:30,15.0884846,0.0001468,53.2186,47.3708,98.6256,261.4903,0.00013602,1.878e-05,0.0,0 STARLINK-4166,1 53291U 22086BB  24107.25382669  .00001878  00000-0  13602-3 0  9992,2 53291  53.2186  47.3708 0001468  98.6256 261.4903 15.08848460 96724,6917.855,95.437,540.735,538.704,0.0
53291.0,STARLINK-4166,PAYLOAD,2024-04-17 02:45:30,15.08880928,0.0001504,53.2184,43.5104,112.6539,247.4612,0.00075839,0.00011816,0.0,0 STARLINK-4166,1 53291U 22086BB  24108.11493101  .00011816  00000-0  75839-3 0  9995,2 53291  53.2184  43.5104 0001504 112.6539 247.4612 15.08880928 96694,6917.755,95.435,540.661,538.58,0.0
53291.0,STARLINK-4166,PAYLOAD,2024-04-18 04:11:42,15.08827485,0.0001219,53.2173,38.7497,93.6179,266.4952,-0.00010595,-1.973e-05,0.0,0 STARLINK-4166,1 53291U 22086BB  24109.17480078 -.00001973  00000-0 -10595-3 0  9994,2 53291  53.2173  38.7497 0001219  93.6179 266.4952 15.08827485 96859,6917.919,95.438,540.627,538.94,0.0
53291.0,STARLINK-4166,PAYLOAD,2024-04-18 08:57:51,15.08837705,0.0001243,53.2171,37.8586,101.0655,259.0477,7.8826e-05,9.67e-06,0.0,0 STARLINK-4166,1 53291U 22086BB  24109.37351384  .00000967  00000-0  78826-4 0  9995,2 53291  53.2171  37.8586 0001243 101.0655 259.0477 15.08837705 96885,6917.887,95.438,540.612,538.893,0.0
53291.0,STARLINK-4166,PAYLOAD,2024-04-19 04:02:29,15.08851097,0.0001197,53.2174,34.2918,114.5564,245.5553,0.0004397,6.719e-05,0.0,0 STARLINK-4166,1 53291U 22086BB  24110.16839130  .00006719  00000-0  43970-3 0  9996,2 53291  53.2174  34.2918 0001197 114.5564 245.5553 15.08851097 97004,6917.846,95.437,540.54,538.883,0.0
53291.0,STARLINK-4166,PAYLOAD,2024-04-20 02:17:52,15.08885368,0.0001096,53.2179,30.1293,92.946,267.1657,0.00096417,0.00015109,0.0,0 STARLINK-4166,1 53291U 22086BB  24111.09574468  .00015109  00000-0  96417-3 0  9996,2 53291  53.2179  30.1293 0001096  92.9460 267.1657 15.08885368 97140,6917.742,95.435,540.365,538.849,0.0
53291.0,STARLINK-4166,PAYLOAD,2024-04-20 18:11:44,15.0884522,0.0001463,53.2187,27.1549,77.8652,282.2504,-3.0121e-06,-3.36e-06,0.0,0 STARLINK-4166,1 53291U 22086BB  24111.75815332 -.00000336  00000-0 -30121-5 0  9997,2 53291  53.2187  27.1549 0001463  77.8652 282.2504 15.08845220 97245,6917.864,95.437,540.742,538.717,0.0
53291.0,STARLINK-4166,PAYLOAD,2024-04-21 03:44:03,15.08836413,0.0001316,53.2194,25.3679,89.2626,270.8517,-0.00025951,-4.415e-05,0.0,0 STARLINK-4166,1 53291U 22086BB  24112.15559897 -.00004415  00000-0 -25951-3 0  9998,2 53291  53.2194  25.3679 0001316  89.2626 270.8517 15.08836413 97300,6917.891,95.438,540.667,538.846,0.0
53291.0,STARLINK-4166,PAYLOAD,2024-04-21 22:48:41,15.08852506,0.0002062,53.2205,21.8037,95.4799,264.6428,-0.00018339,-3.207e-05,0.0,0 STARLINK-4166,1 53291U 22086BB  24112.95047565 -.00003207  00000-0 -18339-3 0  9990,2 53291  53.2205  21.8037 0002062  95.4799 264.6428 15.08852506 97584,6917.842,95.437,541.134,538.281,0.0
53291.0,STARLINK-4166,PAYLOAD,2024-04-22 00:24:03,15.08857336,0.000179,53.2198,21.5035,88.6457,271.474,-7.3959e-05,-1.466e-05,0.0,0 STARLINK-4166,1 53291U 22086BB  24113.01671296 -.00001466  00000-0 -73959-4 0  9997,2 53291  53.2198  21.5035 0001790  88.6457 271.4740 15.08857336 97435,6917.827,95.436,540.931,538.454,0.0
53291.0,STARLINK-4166,PAYLOAD,2024-04-22 17:53:19,15.08829419,0.0001749,53.2197,18.2331,113.2849,246.8328,0.00023542,3.46e-05,0.0,0 STARLINK-4166,1 53291U 22086BB  24113.74536971  .00003460  00000-0  23542-3 0  9993,2 53291  53.2197  18.2331 0001749 113.2849 246.8328 15.08829419 97541,6917.913,95.438,540.988,538.568,0.0
53291.0,STARLINK-4166,PAYLOAD,2024-04-22 22:39:29,15.0883523,0.0001708,53.22,17.3444,99.0975,261.021,0.00025686,3.802e-05,0.0,0 STARLINK-4166,1 53291U 22086BB  24113.94408887  .00003802  00000-0  25686-3 0  9990,2 53291  53.2200  17.3444 0001708  99.0975 261.0210 15.08835230 97735,6917.895,95.438,540.942,538.578,0.0
53291.0,STARLINK-4166,PAYLOAD,2024-04-23 00:14:52,15.08836937,0.0001815,53.2194,17.0449,108.8365,251.2825,0.00030332,4.542e-05,0.0,0 STARLINK-4166,1 53291U 22086BB  24114.01032779  .00004542  00000-0  30332-3 0  9998,2 53291  53.2194  17.0449 0001815 108.8365 251.2825 15.08836937 97749,6917.89,95.438,541.01,538.499,0.0
53291.0,STARLINK-4166,PAYLOAD,2024-04-23 20:54:53,15.0883886,0.0002047,53.2201,13.183,113.5467,246.574,-2.8541e-06,-3.34e-06,0.0,0 STARLINK-4166,1 53291U 22086BB  24114.87144981 -.00000334  00000-0 -28541-5 0  9999,2 53291  53.2201  13.1830 0002047 113.5467 246.5740 15.08838860 97710,6917.884,95.438,541.165,538.333,0.0
53291.0,STARLINK-4166,PAYLOAD,2024-04-23 22:30:16,15.0883967,0.0002016,53.2202,12.8865,111.9537,248.1669,5.5651e-06,-2e-06,0.0,0 STARLINK-4166,1 53291U 22086BB  24114.93768946 -.00000200  00000-0  55651-5 0  9992,2 53291  53.2202  12.8865 0002016 111.9537 248.1669 15.08839670 97887,6917.881,95.438,541.141,538.352,0.0
53291.0,STARLINK-4166,PAYLOAD,2024-04-24 03:16:25,15.0884814,0.0001607,53.2187,11.9826,101.1787,258.9386,4.7724e-05,4.72e-06,0.0,0 STARLINK-4166,1 53291U 22086BB  24115.13640317  .00000472  00000-0  47724-4 0  9997,2 53291  53.2187  11.9826 0001607 101.1787 258.9386 15.08848140 97752,6917.856,95.437,540.832,538.609,0.0
53291.0,STARLINK-4166,PAYLOAD,2024-04-24 20:45:39,15.08842898,0.0001456,53.2179,8.7103,103.0788,257.0367,-1.9051e-05,-5.91e-06,0.0,0 STARLINK-4166,1 53291U 22086BB  24115.86504489 -.00000591  00000-0 -19051-4 0  9992,2 53291  53.2179   8.7103 0001456 103.0788 257.0367 15.08842898 97864,6917.872,95.437,540.744,538.729,0.0
53291.0,STARLINK-4166,PAYLOAD,2024-04-24 22:21:02,15.08843507,0.0001449,53.2181,8.4129,101.9475,258.1679,-8.0956e-06,-4.17e-06,0.0,0 STARLINK-4166,1 53291U 22086BB  24115.93128446 -.00000417  00000-0 -80956-5 0  9995,2 53291  53.2181   8.4129 0001449 101.9475 258.1679 15.08843507 98030,6917.87,95.437,540.737,538.732,0.0
53291.0,STARLINK-4166,PAYLOAD,2024-04-25 01:31:49,15.08852461,0.0001487,53.2186,7.8314,103.2056,256.9102,0.00023769,3.498e-05,0.0,0 STARLINK-4166,1 53291U 22086BB  24116.06376265  .00003498  00000-0  23769-3 0  9991,2 53291  53.2186   7.8314 0001487 103.2056 256.9102 15.08852461 97895,6917.842,95.437,540.736,538.679,0.0
